{
    "links": {
        "self": "http://www.neowsapp.com/rest/v1/neo/3564019?api_key=iIulBulltgU6a56xZRHN4H3l9WmuAYTsLGpBGhQ2"
    },
    "id": "3564019",
    "neo_reference_id": "3564019",
    "name": "(2011 HP4)",
    "designation": "2011 HP4",
    "nasa_jpl_url": "http://ssd.jpl.nasa.gov/sbdb.cgi?sstr=3564019",
    "absolute_magnitude_h": 27.6,
    "estimated_diameter": {
        "kilometers": {
            "estimated_diameter_min": 0.0080270317,
            "estimated_diameter_max": 0.0179489885
        },
        "meters": {
            "estimated_diameter_min": 8.0270316728,
            "estimated_diameter_max": 17.948988478
        },
        "miles": {
            "estimated_diameter_min": 0.0049877647,
            "estimated_diameter_max": 0.0111529809
        },
        "feet": {
            "estimated_diameter_min": 26.3354065935,
            "estimated_diameter_max": 58.8877593581
        }
    },
    "is_potentially_hazardous_asteroid": false,
    "close_approach_data": [
        {
            "close_approach_date": "2011-05-01",
            "close_approach_date_full": "2011-May-01 12:50",
            "epoch_date_close_approach": 1304254200000,
            "relative_velocity": {
                "kilometers_per_second": "14.339920242",
                "kilometers_per_hour": "51623.7128710412",
                "miles_per_hour": "32076.9675892312"
            },
            "miss_distance": {
                "astronomical": "0.0085087172",
                "lunar": "3.3098909908",
                "kilometers": "1272885.969552364",
                "miles": "790934.6653520632"
            },
            "orbiting_body": "Earth"
        },
        {
            "close_approach_date": "2011-05-01",
            "close_approach_date_full": "2011-May-01 18:47",
            "epoch_date_close_approach": 1304275620000,
            "relative_velocity": {
                "kilometers_per_second": "14.436660445",
                "kilometers_per_hour": "51971.9776020464",
                "miles_per_hour": "32293.3657494494"
            },
            "miss_distance": {
                "astronomical": "0.0086506742",
                "lunar": "3.3651122638",
                "kilometers": "1294122.434383954",
                "miles": "804130.3927044052"
            },
            "orbiting_body": "Moon"
        }
    ],
    "orbital_data": {
        "orbit_id": "8",
        "orbit_determination_date": "2017-04-06 08:53:38",
        "first_observation_date": "2011-04-26",
        "last_observation_date": "2011-04-28",
        "data_arc_in_days": 2,
        "observations_used": 16,
        "orbit_uncertainty": "8",
        "minimum_orbit_intersection": ".000412727",
        "jupiter_tisserand_invariant": "3.386",
        "epoch_osculation": "2455678.5",
        "eccentricity": ".6135845263135143",
        "semi_major_axis": "2.205360176810721",
        "inclination": "3.448211850729602",
        "ascending_node_longitude": "41.92169945499471",
        "orbital_period": "1196.238343618704",
        "perihelion_distance": ".8521852973716265",
        "perihelion_argument": "233.1500365712697",
        "aphelion_distance": "3.558535056249815",
        "perihelion_time": "2455721.202110265278",
        "mean_anomaly": "347.1490829753907",
        "mean_motion": ".300943371294198",
        "equinox": "J2000",
        "orbit_class": {
            "orbit_class_type": "APO",
            "orbit_class_description": "Near-Earth asteroid orbits which cross the Earth’s orbit similar to that of 1862 Apollo",
            "orbit_class_range": "a (semi-major axis) > 1.0 AU; q (perihelion) < 1.017 AU"
        }
    },
    "is_sentry_object": false
}